[{"OBJECT_NAME":"STARLINK-1284","OBJECT_ID":"2020-019AG","EPOCH":"2026-03-09T13:11:17.276064","MEAN_MOTION":15.51780095,"ECCENTRICITY":0.0003713,"INCLINATION":53.0484,"RA_OF_ASC_NODE":131.664,"ARG_OF_PERICENTER":17.3458,"MEAN_ANOMALY":342.7677,"EPHEMERIS_TYPE":0,"CLASSIFICATION_TYPE":"U","NORAD_CAT_ID":45390,"ELEMENT_SET_NO":999,"REV_AT_EPOCH":33020,"BSTAR":0.0015497,"MEAN_MOTION_DOT":0.00094801,"MEAN_MOTION_DDOT":0},{"OBJECT_NAME":"HORS 4 (RS82S)","OBJECT_ID":"2024-199V","EPOCH":"2026-03-09T21:47:16.934496","MEAN_MOTION":15.51209314,"ECCENTRICITY":0.00051454,"INCLINATION":97.3098,"RA_OF_ASC_NODE":303.8763,"ARG_OF_PERICENTER":286.2787,"MEAN_ANOMALY":73.7899,"EPHEMERIS_TYPE":0,"CLASSIFICATION_TYPE":"U","NORAD_CAT_ID":61754,"ELEMENT_SET_NO":999,"REV_AT_EPOCH":12221,"BSTAR":0.00073987436,"MEAN_MOTION_DOT":0.00043371,"MEAN_MOTION_DDOT":0}]
